{
  "type": "FeatureCollection",
  "features": [
    {
      "type": "Feature",
      "properties": {
        "norad_id": 66643,
        "name": "STARLINK-35918",
        "group": "last-30-days",
        "lat": 28.156818503939082,
        "lon": -164.54520885984513,
        "alt_km": 414.75480896820955,
        "timestamp": "2025-12-15T22:44:27.660820+00:00",
        "meta_object_name": "STARLINK-35918",
        "meta_object_id": "2025-271AC",
        "meta_epoch": "2025-12-15T08:00:01.999872",
        "meta_mean_motion": 15.49270322,
        "meta_eccentricity": 0.00011263,
        "meta_inclination": 53.1591,
        "meta_ra_of_asc_node": 174.734,
        "meta_arg_of_pericenter": 81.3441,
        "meta_mean_anomaly": 127.301,
        "meta_ephemeris_type": 0,
        "meta_classification_type": "U",
        "meta_norad_cat_id": 66643,
        "meta_element_set_no": 999,
        "meta_rev_at_epoch": 466,
        "meta_bstar": 0.0012043938,
        "meta_mean_motion_dot": 0.0006702,
        "meta_mean_motion_ddot": 0,
        "tle_line1": "1 66643U 25271AC  25349.33335648  .00067020  00000+0  12044-2 0  9997",
        "tle_line2": "2 66643  53.1591 174.7340 0001126  81.3441 127.3010 15.49270322  4663"
      },
      "geometry": {
        "type": "Point",
        "coordinates": [
          -164.54520885984513,
          28.156818503939082
        ]
      }
    },
    {
      "type": "Feature",
      "properties": {
        "norad_id": 66644,
        "name": "STARLINK-35938",
        "group": "last-30-days",
        "lat": 29.558149785117706,
        "lon": -163.04512855301505,
        "alt_km": 414.8166913160003,
        "timestamp": "2025-12-15T22:44:27.660831+00:00",
        "meta_object_name": "STARLINK-35938",
        "meta_object_id": "2025-271AD",
        "meta_epoch": "2025-12-15T08:00:01.999872",
        "meta_mean_motion": 15.49278216,
        "meta_eccentricity": 5.253e-05,
        "meta_inclination": 53.1591,
        "meta_ra_of_asc_node": 174.7298,
        "meta_arg_of_pericenter": 95.9786,
        "meta_mean_anomaly": 114.556,
        "meta_ephemeris_type": 0,
        "meta_classification_type": "U",
        "meta_norad_cat_id": 66644,
        "meta_element_set_no": 999,
        "meta_rev_at_epoch": 466,
        "meta_bstar": 0.0013366469,
        "meta_mean_motion_dot": 0.00074522,
        "meta_mean_motion_ddot": 0,
        "tle_line1": "1 66644U 25271AD  25349.33335648  .00074522  00000+0  13366-2 0  9991",
        "tle_line2": "2 66644  53.1591 174.7298 0000525  95.9786 114.5560 15.49278216  4669"
      },
      "geometry": {
        "type": "Point",
        "coordinates": [
          -163.04512855301505,
          29.558149785117706
        ]
      }
    },
    {
      "type": "Feature",
      "properties": {
        "norad_id": 66645,
        "name": "SHENZHOU-22",
        "group": "last-30-days",
        "lat": 5.916323687938413,
        "lon": 170.4919354822965,
        "alt_km": 390.5819738966047,
        "timestamp": "2025-12-15T22:44:27.660846+00:00",
        "meta_object_name": "SHENZHOU-22",
        "meta_object_id": "2025-272A",
        "meta_epoch": "2025-12-15T08:10:40.084608",
        "meta_mean_motion": 15.592964,
        "meta_eccentricity": 0.0007961,
        "meta_inclination": 41.4685,
        "meta_ra_of_asc_node": 0.9167,
        "meta_arg_of_pericenter": 52.8673,
        "meta_mean_anomaly": 307.2892,
        "meta_ephemeris_type": 0,
        "meta_classification_type": "U",
        "meta_norad_cat_id": 66645,
        "meta_element_set_no": 999,
        "meta_rev_at_epoch": 26357,
        "meta_bstar": 0.00021537809,
        "meta_mean_motion_dot": 0.00017163,
        "meta_mean_motion_ddot": 0,
        "tle_line1": "1 66645U 25272A   25349.34074172  .00017163  00000+0  21538-3 0  9995",
        "tle_line2": "2 66645  41.4685   0.9167 0007961  52.8673 307.2892 15.59296400263579"
      },
      "geometry": {
        "type": "Point",
        "coordinates": [
          170.4919354822965,
          5.916323687938413
        ]
      }
    },
    {
      "type": "Feature",
      "properties": {
        "norad_id": 66647,
        "name": "COSMOS 2597 (RODNIK-S 22)",
        "group": "last-30-days",
        "lat": 43.65002895777301,
        "lon": -68.32306949179194,
        "alt_km": 1498.0031526853436,
        "timestamp": "2025-12-15T22:44:27.660856+00:00",
        "meta_object_name": "COSMOS 2597 (RODNIK-S 22)",
        "meta_object_id": "2025-273A",
        "meta_epoch": "2025-12-15T07:02:13.545312",
        "meta_mean_motion": 12.41951989,
        "meta_eccentricity": 0.00077066,
        "meta_inclination": 82.4989,
        "meta_ra_of_asc_node": 284.8633,
        "meta_arg_of_pericenter": 280.8513,
        "meta_mean_anomaly": 79.1699,
        "meta_ephemeris_type": 0,
        "meta_classification_type": "U",
        "meta_norad_cat_id": 66647,
        "meta_element_set_no": 999,
        "meta_rev_at_epoch": 245,
        "meta_bstar": 2.9799839e-05,
        "meta_mean_motion_dot": 1.4e-07,
        "meta_mean_motion_ddot": 0,
        "tle_line1": "1 66647U 25273A   25349.29321233  .00000014  00000+0  29800-4 0  9993",
        "tle_line2": "2 66647  82.4989 284.8633 0007706 280.8513  79.1699 12.41951989  2453"
      },
      "geometry": {
        "type": "Point",
        "coordinates": [
          -68.32306949179194,
          43.65002895777301
        ]
      }
    },
    {
      "type": "Feature",
      "properties": {
        "norad_id": 66648,
        "name": "COSMOS 2598 (RODNIK-S 23)",
        "group": "last-30-days",
        "lat": 81.22872500755128,
        "lon": 45.87204779175907,
        "alt_km": 1489.942460475395,
        "timestamp": "2025-12-15T22:44:27.660867+00:00",
        "meta_object_name": "COSMOS 2598 (RODNIK-S 23)",
        "meta_object_id": "2025-273B",
        "meta_epoch": "2025-12-15T06:46:56.875008",
        "meta_mean_motion": 12.432335,
        "meta_eccentricity": 0.00080005,
        "meta_inclination": 82.5028,
        "meta_ra_of_asc_node": 284.8674,
        "meta_arg_of_pericenter": 230.8391,
        "meta_mean_anomaly": 129.1978,
        "meta_ephemeris_type": 0,
        "meta_classification_type": "U",
        "meta_norad_cat_id": 66648,
        "meta_element_set_no": 999,
        "meta_rev_at_epoch": 245,
        "meta_bstar": 1.830119e-05,
        "meta_mean_motion_dot": 1.2e-07,
        "meta_mean_motion_ddot": 0,
        "tle_line1": "1 66648U 25273B   25349.28260272  .00000012  00000+0  18301-4 0  9990",
        "tle_line2": "2 66648  82.5028 284.8674 0008000 230.8391 129.1978 12.43233500  2451"
      },
      "geometry": {
        "type": "Point",
        "coordinates": [
          45.87204779175907,
          81.22872500755128
        ]
      }
    },
    {
      "type": "Feature",
      "properties": {
        "norad_id": 66649,
        "name": "COSMOS 2599 (RODNIK-S 24)",
        "group": "last-30-days",
        "lat": 16.067758795009684,
        "lon": -73.34766703275525,
        "alt_km": 1503.4512404112975,
        "timestamp": "2025-12-15T22:44:27.660877+00:00",
        "meta_object_name": "COSMOS 2599 (RODNIK-S 24)",
        "meta_object_id": "2025-273C",
        "meta_epoch": "2025-12-15T07:10:36.787296",
        "meta_mean_motion": 12.41151002,
        "meta_eccentricity": 0.00063044,
        "meta_inclination": 82.5045,
        "meta_ra_of_asc_node": 284.881,
        "meta_arg_of_pericenter": 272.3923,
        "meta_mean_anomaly": 87.6434,
        "meta_ephemeris_type": 0,
        "meta_classification_type": "U",
        "meta_norad_cat_id": 66649,
        "meta_element_set_no": 999,
        "meta_rev_at_epoch": 245,
        "meta_bstar": 3.84558e-05,
        "meta_mean_motion_dot": 1.5e-07,
        "meta_mean_motion_ddot": 0,
        "tle_line1": "1 66649U 25273C   25349.29903689  .00000015  00000+0  38456-4 0  9994",
        "tle_line2": "2 66649  82.5045 284.8810 0006304 272.3923  87.6434 12.41151002  2459"
      },
      "geometry": {
        "type": "Point",
        "coordinates": [
          -73.34766703275525,
          16.067758795009684
        ]
      }
    },
    {
      "type": "Feature",
      "properties": {
        "norad_id": 66650,
        "name": "BEE-1000",
        "group": "last-30-days",
        "lat": -46.66408670201042,
        "lon": 88.78910890576101,
        "alt_km": 592.433364683824,
        "timestamp": "2025-12-15T22:44:27.660887+00:00",
        "meta_object_name": "BEE-1000",
        "meta_object_id": "2025-274A",
        "meta_epoch": "2025-12-15T00:47:46.213728",
        "meta_mean_motion": 14.91671974,
        "meta_eccentricity": 0.00104313,
        "meta_inclination": 97.7391,
        "meta_ra_of_asc_node": 276.1786,
        "meta_arg_of_pericenter": 242.8102,
        "meta_mean_anomaly": 117.2054,
        "meta_ephemeris_type": 0,
        "meta_classification_type": "U",
        "meta_norad_cat_id": 66650,
        "meta_element_set_no": 999,
        "meta_rev_at_epoch": 274,
        "meta_bstar": 0.00015257713,
        "meta_mean_motion_dot": 1.479e-05,
        "meta_mean_motion_ddot": 0,
        "tle_line1": "1 66650U 25274A   25349.03317377  .00001479  00000+0  15258-3 0  9991",
        "tle_line2": "2 66650  97.7391 276.1786 0010431 242.8102 117.2054 14.91671974  2748"
      },
      "geometry": {
        "type": "Point",
        "coordinates": [
          88.78910890576101,
          -46.66408670201042
        ]
      }
    }
  ]
}